{
  "type": "FeatureCollection",
  "features": [
    {
      "type": "Feature",
      "properties": {
        "norad_id": 31186,
        "name": "FENGYUN 1C DEB",
        "group": "fengyun-1c-debris",
        "lat": -75.39345105403372,
        "lon": 37.340916254784474,
        "alt_km": 875.9733211643133,
        "timestamp": "2025-12-06T11:28:11.343320+00:00",
        "meta_object_name": "FENGYUN 1C DEB",
        "meta_object_id": "1999-025BJQ",
        "meta_epoch": "2025-12-02T00:56:26.242368",
        "meta_mean_motion": 14.1287731,
        "meta_eccentricity": 0.00265333,
        "meta_inclination": 99.1774,
        "meta_ra_of_asc_node": 251.1349,
        "meta_arg_of_pericenter": 91.9141,
        "meta_mean_anomaly": 282.1326,
        "meta_ephemeris_type": 0,
        "meta_classification_type": "U",
        "meta_norad_cat_id": 31186,
        "meta_element_set_no": 999,
        "meta_rev_at_epoch": 95954,
        "meta_bstar": 0.0005366123,
        "meta_mean_motion_dot": 9.55e-06,
        "meta_mean_motion_ddot": 0,
        "tle_line1": "1 31186U 99025BJQ 25336.03919262  .00000955  00000+0  53661-3 0  9997",
        "tle_line2": "2 31186  99.1774 251.1349 0026533  91.9141 282.1326 14.12877310959547"
      },
      "geometry": {
        "type": "Point",
        "coordinates": [
          37.340916254784474,
          -75.39345105403372
        ]
      }
    },
    {
      "type": "Feature",
      "properties": {
        "norad_id": 31187,
        "name": "FENGYUN 1C DEB",
        "group": "fengyun-1c-debris",
        "lat": -6.998563303085297,
        "lon": 22.065768463700977,
        "alt_km": 609.9022877655871,
        "timestamp": "2025-12-06T11:28:11.343330+00:00",
        "meta_object_name": "FENGYUN 1C DEB",
        "meta_object_id": "1999-025BJR",
        "meta_epoch": "2025-12-04T09:12:55.501344",
        "meta_mean_motion": 14.58818498,
        "meta_eccentricity": 0.0221946,
        "meta_inclination": 99.2417,
        "meta_ra_of_asc_node": 200.8812,
        "meta_arg_of_pericenter": 249.2029,
        "meta_mean_anomaly": 108.5265,
        "meta_ephemeris_type": 0,
        "meta_classification_type": "U",
        "meta_norad_cat_id": 31187,
        "meta_element_set_no": 999,
        "meta_rev_at_epoch": 68978,
        "meta_bstar": 0.0080711,
        "meta_mean_motion_dot": 0.00053507,
        "meta_mean_motion_ddot": 0,
        "tle_line1": "1 31187U 99025BJR 25338.38397571  .00053507  00000+0  80711-2 0  9997",
        "tle_line2": "2 31187  99.2417 200.8812 0221946 249.2029 108.5265 14.58818498689788"
      },
      "geometry": {
        "type": "Point",
        "coordinates": [
          22.065768463700977,
          -6.998563303085297
        ]
      }
    },
    {
      "type": "Feature",
      "properties": {
        "norad_id": 31188,
        "name": "FENGYUN 1C DEB",
        "group": "fengyun-1c-debris",
        "lat": 58.38502204307829,
        "lon": 33.80896376075365,
        "alt_km": 844.6660290432746,
        "timestamp": "2025-12-06T11:28:11.343340+00:00",
        "meta_object_name": "FENGYUN 1C DEB",
        "meta_object_id": "1999-025BJS",
        "meta_epoch": "2025-12-05T03:26:03.547104",
        "meta_mean_motion": 14.23746039,
        "meta_eccentricity": 0.00594994,
        "meta_inclination": 98.7496,
        "meta_ra_of_asc_node": 46.9698,
        "meta_arg_of_pericenter": 271.5057,
        "meta_mean_anomaly": 149.9815,
        "meta_ephemeris_type": 0,
        "meta_classification_type": "U",
        "meta_norad_cat_id": 31188,
        "meta_element_set_no": 999,
        "meta_rev_at_epoch": 96228,
        "meta_bstar": 0.0031565228,
        "meta_mean_motion_dot": 7.306e-05,
        "meta_mean_motion_ddot": 0,
        "tle_line1": "1 31188U 99025BJS 25339.14309661  .00007306  00000+0  31565-2 0  9995",
        "tle_line2": "2 31188  98.7496  46.9698 0059499 271.5057 149.9815 14.23746039962284"
      },
      "geometry": {
        "type": "Point",
        "coordinates": [
          33.80896376075365,
          58.38502204307829
        ]
      }
    },
    {
      "type": "Feature",
      "properties": {
        "norad_id": 31190,
        "name": "FENGYUN 1C DEB",
        "group": "fengyun-1c-debris",
        "lat": -46.40426135110551,
        "lon": 2.7771324912659803,
        "alt_km": 848.3086601753148,
        "timestamp": "2025-12-06T11:28:11.343350+00:00",
        "meta_object_name": "FENGYUN 1C DEB",
        "meta_object_id": "1999-025BJU",
        "meta_epoch": "2025-12-05T23:42:59.017248",
        "meta_mean_motion": 14.03573899,
        "meta_eccentricity": 0.00674553,
        "meta_inclination": 98.819,
        "meta_ra_of_asc_node": 352.9184,
        "meta_arg_of_pericenter": 278.5517,
        "meta_mean_anomaly": 80.801,
        "meta_ephemeris_type": 0,
        "meta_classification_type": "U",
        "meta_norad_cat_id": 31190,
        "meta_element_set_no": 999,
        "meta_rev_at_epoch": 95452,
        "meta_bstar": 0.0011330809,
        "meta_mean_motion_dot": 1.771e-05,
        "meta_mean_motion_ddot": 0,
        "tle_line1": "1 31190U 99025BJU 25339.98818307  .00001771  00000+0  11331-2 0  9991",
        "tle_line2": "2 31190  98.8190 352.9184 0067455 278.5517  80.8010 14.03573899954526"
      },
      "geometry": {
        "type": "Point",
        "coordinates": [
          2.7771324912659803,
          -46.40426135110551
        ]
      }
    },
    {
      "type": "Feature",
      "properties": {
        "norad_id": 31191,
        "name": "FENGYUN 1C DEB",
        "group": "fengyun-1c-debris",
        "lat": 65.02246451068193,
        "lon": -138.18197334863953,
        "alt_km": 804.233863293066,
        "timestamp": "2025-12-06T11:28:11.343359+00:00",
        "meta_object_name": "FENGYUN 1C DEB",
        "meta_object_id": "1999-025BJV",
        "meta_epoch": "2025-12-05T16:49:21.170208",
        "meta_mean_motion": 14.40765771,
        "meta_eccentricity": 0.00919348,
        "meta_inclination": 98.7823,
        "meta_ra_of_asc_node": 240.4024,
        "meta_arg_of_pericenter": 215.5866,
        "meta_mean_anomaly": 143.9169,
        "meta_ephemeris_type": 0,
        "meta_classification_type": "U",
        "meta_norad_cat_id": 31191,
        "meta_element_set_no": 999,
        "meta_rev_at_epoch": 97911,
        "meta_bstar": 0.00067741199,
        "meta_mean_motion_dot": 2.229e-05,
        "meta_mean_motion_ddot": 0,
        "tle_line1": "1 31191U 99025BJV 25339.70093947  .00002229  00000+0  67741-3 0  9993",
        "tle_line2": "2 31191  98.7823 240.4024 0091934 215.5866 143.9169 14.40765771979111"
      },
      "geometry": {
        "type": "Point",
        "coordinates": [
          -138.18197334863953,
          65.02246451068193
        ]
      }
    },
    {
      "type": "Feature",
      "properties": {
        "norad_id": 31192,
        "name": "FENGYUN 1C DEB",
        "group": "fengyun-1c-debris",
        "lat": 51.97614002048166,
        "lon": -46.736585089091804,
        "alt_km": 746.0134719534826,
        "timestamp": "2025-12-06T11:28:11.343369+00:00",
        "meta_object_name": "FENGYUN 1C DEB",
        "meta_object_id": "1999-025BJW",
        "meta_epoch": "2025-12-05T16:37:52.220928",
        "meta_mean_motion": 14.20943064,
        "meta_eccentricity": 0.02595204,
        "meta_inclination": 98.5522,
        "meta_ra_of_asc_node": 323.5978,
        "meta_arg_of_pericenter": 124.114,
        "meta_mean_anomaly": 238.4953,
        "meta_ephemeris_type": 0,
        "meta_classification_type": "U",
        "meta_norad_cat_id": 31192,
        "meta_element_set_no": 999,
        "meta_rev_at_epoch": 96643,
        "meta_bstar": 0.00043733292,
        "meta_mean_motion_dot": 1.286e-05,
        "meta_mean_motion_ddot": 0,
        "tle_line1": "1 31192U 99025BJW 25339.69296552  .00001286  00000+0  43733-3 0  9996",
        "tle_line2": "2 31192  98.5522 323.5978 0259520 124.1140 238.4953 14.20943064966437"
      },
      "geometry": {
        "type": "Point",
        "coordinates": [
          -46.736585089091804,
          51.97614002048166
        ]
      }
    },
    {
      "type": "Feature",
      "properties": {
        "norad_id": 31194,
        "name": "FENGYUN 1C DEB",
        "group": "fengyun-1c-debris",
        "lat": -12.574713474859388,
        "lon": -128.69314681779767,
        "alt_km": 747.2624455358718,
        "timestamp": "2025-12-06T11:28:11.343385+00:00",
        "meta_object_name": "FENGYUN 1C DEB",
        "meta_object_id": "1999-025BJY",
        "meta_epoch": "2025-12-05T10:27:17.971488",
        "meta_mean_motion": 14.36579737,
        "meta_eccentricity": 0.00579243,
        "meta_inclination": 98.9638,
        "meta_ra_of_asc_node": 228.2048,
        "meta_arg_of_pericenter": 300.7578,
        "meta_mean_anomaly": 58.7911,
        "meta_ephemeris_type": 0,
        "meta_classification_type": "U",
        "meta_norad_cat_id": 31194,
        "meta_element_set_no": 999,
        "meta_rev_at_epoch": 97022,
        "meta_bstar": 0.002103726,
        "meta_mean_motion_dot": 6.261e-05,
        "meta_mean_motion_ddot": 0,
        "tle_line1": "1 31194U 99025BJY 25339.43562467  .00006261  00000+0  21037-2 0  9991",
        "tle_line2": "2 31194  98.9638 228.2048 0057924 300.7578  58.7911 14.36579737970229"
      },
      "geometry": {
        "type": "Point",
        "coordinates": [
          -128.69314681779767,
          -12.574713474859388
        ]
      }
    }
  ]
}